SL-14 R/B               
1 19574U 88093B   25125.09225104  .00000642  00000+0  71709-4 0  9991
2 19574  82.5305 331.6268 0020315 343.4155 133.3004 14.85290635976319
SL-16 R/B               
1 19650U 88102B   25124.87088709 -.00000164  00000+0 -58621-4 0  9999
2 19650  70.9986  81.2484 0012351 126.7471 233.4788 14.16098872883177
INTERCOSMOS 24          
1 20261U 89080A   25125.21240739  .00000544  00000+0  16166-3 0  9994
2 20261  82.6036 305.0030 1189674 288.3538  59.1916 12.58971547627568
SL-14 R/B               
1 20262U 89080C   25125.41109280  .00000372  00000+0  10589-3 0  9994
2 20262  82.5970  11.1290 1231240 169.2934 193.7185 12.50275275621195
DELTA 1 R/B             
1 20323U 89089B   25125.12683925  .00000657  00000+0  17206-3 0  9991
2 20323  97.1092  16.0955 0069974  18.4554 341.9158 14.50363586871534
ARIANE 40 R/B           
1 20443U 90005H   25125.45227732  .00000491  00000+0  17051-3 0  9994
2 20443  98.3482 189.5271 0011131  56.9824 303.2432 14.39609743848714
DELTA 2 R/B(1)          
1 20453U 90008B   25124.90880125  .00028771  00000+0  68167-3 0  9993
2 20453  35.6116 355.1623 0146326 334.6608  24.6998 15.30357969878486
COSMOS 2058             
1 20465U 90010A   25125.33788584  .00003714  00000+0  23540-3 0  9999
2 20465  82.4832 350.3188 0010160 315.3591  44.6819 15.08624596916823
SL-14 R/B               
1 20466U 90010B   25125.48485981  .00000614  00000+0  72143-4 0  9991
2 20466  82.5046 196.7549 0018693 232.7096 127.2416 14.83226856903855
SL-14 R/B               
1 20511U 90018B   25125.47740956  .00000588  00000+0  71414-4 0  9995
2 20511  82.5201 151.1134 0017111  31.0089 329.2131 14.81810259898024
HST                     
1 20580U 90037B   25124.85649720  .00008496  00000+0  32406-3 0  9993
2 20580  28.4688 338.5262 0002176 339.4973  20.5534 15.24835573726328
SL-16 R/B               
1 20625U 90046B   25124.76793730 -.00000105  00000+0 -29802-4 0  9992
2 20625  70.9992 226.6685 0012418  48.2523 311.9659 14.14957976804692
COSMOS 2084             
1 20663U 90055A   25124.91630304  .00005281  00000+0  38211-3 0  9999
2 20663  62.7908 306.7924 0067777 150.1846 210.3143 15.03400097889863
SL-6 R/B(2)             
1 20666U 90055D   25125.52394141  .00003172  00000+0  25406-3 0  9995
2 20666  62.7838 220.2479 0033318 182.6516 177.4411 15.01858805891351
SL-8 R/B                
1 20775U 90078B   25125.09634774  .00015927  00000+0  53853-3 0  9990
2 20775  82.9087 166.0522 0404300 322.6000  34.7682 14.77469855763566
SL-8 R/B                
1 21088U 91006B   25125.51817824  .00000098  00000+0  83405-4 0  9996
2 21088  82.9453  39.2950 0022445 174.8361 358.1506 13.77448936721917
OKEAN-3                 
1 21397U 91039A   25124.81622569  .00004743  00000+0  35450-3 0  9994
2 21397  82.5152 275.5108 0013511 304.9741  55.0215 15.02515783818624
COSMOS 2151             
1 21422U 91042A   25125.15571799  .00002219  00000+0  18214-3 0  9998
2 21422  82.5000  20.8667 0013438  29.0574 331.1394 14.98709508838119
SL-14 R/B               
1 21423U 91042B   25125.46716829  .00000543  00000+0  66091-4 0  9993
2 21423  82.4915 149.1635 0017404 168.7526 191.4081 14.81509875828474
ERS-1                   
1 21574U 91050A   25124.82812169  .00000535  00000+0  18642-3 0  9991
2 21574  98.7927 130.2565 0032911  40.1135 320.2473 14.39167931771308
ARIANE 40 R/B           
1 21610U 91050F   25125.40464464  .00000549  00000+0  17791-3 0  9997
2 21610  98.2422 183.4400 0001832 297.7052  62.3952 14.42603767774819
INTERCOSMOS 25          
1 21819U 91086A   25124.94669018  .00002412  00000+0  46671-3 0  9997
2 21819  82.6007 136.5437 1492630  62.0047 312.3949 12.10846156459305
SL-8 R/B                
1 21876U 92008B   25124.76484824  .00000173  00000+0  16301-3 0  9994
2 21876  82.9243 137.5262 0033206 277.9340 255.6562 13.75923221666932
SL-8 R/B                
1 21938U 92020B   25124.97075116  .00000103  00000+0  90727-4 0  9998
2 21938  82.9339  23.0414 0030466  79.8825 290.9933 13.75498919658696
USA 81                  
1 21949U 92023A   25124.87152276  .00000292  00000+0  10110-3 0  9991
2 21949  85.0046 309.5833 0001307  73.4169 286.7167 14.32229309 50582
COSMOS 2219             
1 22219U 92076A   25124.88244659  .00000387  00000+0  22799-3 0  9999
2 22219  71.0600 303.5796 0019491 308.3294  51.6075 14.14023872674720
SL-16 R/B               
1 22220U 92076B   25125.46182642  .00000312  00000+0  17969-3 0  9990
2 22220  70.9975 117.6194 0014005 213.2000 262.3274 14.16800018678505
COSMOS 2221             
1 22236U 92080A   25125.23322677  .00002551  00000+0  23211-3 0  9995
2 22236  82.5064 214.0923 0015824 144.1468 216.0819 14.94737027755740
SL-16 R/B               
1 22285U 92093B   25124.90422621 -.00000023  00000+0  12428-4 0  9998
2 22285  71.0214 292.4559 0002651  30.0982 330.0292 14.15393795669465
COSMOS 2228             
1 22286U 92094A   25124.83481625  .00002481  00000+0  22092-3 0  9997
2 22286  82.5190 172.6036 0016949 260.0045  99.9264 14.95560100729871
SL-16 R/B               
1 22566U 93016B   25124.77279954 -.00000377  00000+0 -16912-3 0  9994
2 22566  71.0043 143.9715 0008057  68.7162 291.4821 14.15255901658467
COSMOS 2242             
1 22626U 93024A   25125.49871460  .00002693  00000+0  24345-3 0  9990
2 22626  82.5214 201.0531 0015225 259.8924 100.0580 14.95025387734640
SL-16 R/B               
1 22803U 93059B   25125.45340402  .00000307  00000+0  17563-3 0  9992
2 22803  70.9895 301.1027 0018582 314.7463  45.2148 14.17168815636125
ARIANE 40 R/B           
1 22830U 93061H   25124.81287939  .00000388  00000+0  15860-3 0  9996
2 22830  98.5283 194.0728 0011929 116.2569 243.9842 14.32639555649874
COSMOS 2278             
1 23087U 94023A   25125.37349648  .00000107  00000+0  80804-4 0  9998
2 23087  71.0525 100.1070 0007448 153.2232 206.9277 14.14295581601462
SL-16 R/B               
1 23088U 94023B   25124.92710757 -.00000198  00000+0 -77447-4 0  9993
2 23088  71.0012 359.2892 0002234   2.5853 357.5281 14.14960719602412
SL-16 R/B               
1 23343U 94074B   25124.72949944  .00000758  00000+0  10935-3 0  9991
2 23343  97.7429 162.5091 0007615 137.8838 340.2492 14.78996698641570
SL-16 R/B               
1 23405U 94077B   25124.88780140  .00000246  00000+0  15043-3 0  9998
2 23405  70.9825 282.1183 0004791 271.9103  88.1471 14.15516514572530
ARIANE 40+ R/B          
1 23561U 95021B   25124.96903229  .00000484  00000+0  16917-3 0  9990
2 23561  98.4848 194.9455 0006435 357.5785 175.1707 14.39502628574829
SL-16 R/B               
1 23705U 95058B   25125.37404495 -.00000229  00000+0 -92585-4 0  9992
2 23705  71.0191 107.5326 0014510 235.7681 124.2068 14.15444292524522
SL-16 R/B               
1 24298U 96051B   25125.38288442 -.00000175  00000+0 -67971-4 0  9998
2 24298  70.7687 107.7007 0017756 235.1025 124.8427 14.12425900478373
ORBVIEW 2 (SEASTAR)     
1 24883U 97037A   25125.37309593  .00000507  00000+0  19357-3 0  9994
2 24883  98.8208 277.2401 0001325 226.2181 133.8894 14.35225166464508
SL-16 R/B               
1 25400U 98043G   25124.86211908  .00000131  00000+0  73895-4 0  9994
2 25400  98.7852  71.8523 0009662 184.0790 176.0312 14.25963577394971
SL-16 R/B               
1 25407U 98045B   25124.54706785  .00000007  00000+0  27886-4 0  9991
2 25407  71.0092 111.6643 0006091 152.8007 207.3437 14.16138363383332
ISS (ZARYA)             
1 25544U 98067A   25125.53909664  .00010386  00000+0  19398-3 0  9997
2 25544  51.6369 158.3075 0002291  89.9733  64.3522 15.49360431508544
CZ-4B R/B               
1 25732U 99025C   25125.42054234  .00000157  00000+0  96676-4 0  9993
2 25732  98.7032 171.2430 0037808 149.5782 222.5653 14.18181202344611
OKEAN-O                 
1 25860U 99039A   25125.08901639  .00001102  00000+0  15360-3 0  9993
2 25860  97.9865 182.3437 0000923 104.3845 255.7469 14.79737981388838
SL-16 R/B               
1 25861U 99039B   25124.89736335  .00000959  00000+0  12994-3 0  9990
2 25861  98.0391 178.6483 0015110 173.3279 186.8137 14.81225622391146
DELTA 2 R/B             
1 25876U 99041E   25125.36784555  .00001248  00000+0  24078-3 0  9997
2 25876  51.7615  91.4853 0507729 159.2389 203.0000 14.10661996319519
HELIOS 1B               
1 25977U 99064A   25125.51312004  .00002121  00000+0  24715-3 0  9996
2 25977  98.2002  13.5483 0001672  47.9868 312.1489 14.86369977370766
TERRA                   
1 25994U 99068A   25125.50042488  .00000745  00000+0  16227-3 0  9993
2 25994  98.0008 184.9083 0003668  83.3558  40.5462 14.60664927350200
SL-16 R/B               
1 26070U 00006B   25124.97712844  .00000340  00000+0  19689-3 0  9999
2 26070  71.0042  26.9207 0018511 288.9091  71.0026 14.15770561304864
TITAN 4B R/B            
1 26474U 00047B   25124.90314439  .00003901  00000+0  26417-3 0  9996
2 26474  67.9899 186.8485 0041690  21.4860 338.8025 15.06914992346350
ENVISAT                 
1 27386U 02009A   25125.44392066  .00000215  00000+0  83549-4 0  9996
2 27386  98.3310  82.2303 0001189  88.6995  20.8604 14.38907314214911
IDEFIX & ARIANE 42P R/B 
1 27422U 02021B   25125.11883535  .00000488  00000+0  20267-3 0  9990
2 27422  98.5594  63.0334 0012412  21.6920 338.4786 14.30767807197995
AQUA                    
1 27424U 02022A   25125.54571821  .00001557  00000+0  32580-3 0  9991
2 27424  98.3750  83.3702 0001636 107.9406 302.8782 14.61218104223767
CZ-4B R/B               
1 27432U 02024C   25125.37432094  .00000101  00000+0  75356-4 0  9994
2 27432  98.9268 174.5080 0050353 176.8487 194.6038 14.14478063185737
MIDORI II (ADEOS-II)    
1 27597U 02056A   25125.47202506  .00000545  00000+0  23312-3 0  9991
2 27597  98.7353  77.7068 0001519 124.5995 235.5330 14.29018991166258
H-2A R/B                
1 27601U 02056E   25124.86715667  .00000621  00000+0  23334-3 0  9995
2 27601  98.2763  92.9062 0070648   3.2922  55.4539 14.33481320169864
